ONEWEB-0474             
1 51654U 22012AJ  24114.74845717  .00000634  00000+0  17802-2 0  9995
2 51654  87.8981 192.1692 0001824 108.4264 251.7062 13.10370714106562
ONEWEB-0475             
1 51655U 22012AK  24115.10568025  .00000005  00000+0 -21381-4 0  9993
2 51655  87.9204 161.9224 0001628 101.9064 258.2250 13.17648123111729
ONEWEB-0490             
1 54113U 22138A   24114.88566741  .00000123  00000+0  27465-3 0  9999
2 54113  87.9101 101.0664 0001911  94.7656 265.3695 13.19727800 73384
ONEWEB-0492             
1 54114U 22138B   24114.91095385  .00000142  00000+0  32165-3 0  9999
2 54114  87.9107 101.0613 0001841  95.6875 264.4468 13.19726740 73391
ONEWEB-0495             
1 54115U 22138C   24114.88883957  .00000078  00000+0  16141-3 0  9990
2 54115  87.9106 101.0771 0001261 106.9477 253.1794 13.19725110 73371
ONEWEB-0497             
1 54116U 22138D   24114.90147512  .00000115  00000+0  25441-3 0  9999
2 54116  87.9101 101.0652 0001886  91.7098 268.4251 13.19726535 73366
ONEWEB-0499             
1 54117U 22138E   24114.88409373  .00000059  00000+0  11460-3 0  9996
2 54117  87.9107 101.0673 0001606  71.1058 289.0248 13.19728109 73379
ONEWEB-0500             
1 54118U 22138F   24114.88726633  .00000087  00000+0  18538-3 0  9992
2 54118  87.9103 101.0643 0001966  91.6598 268.4760 13.19725947 73386
